{
  "type": "FeatureCollection",
  "features": [
    {
      "type": "Feature",
      "properties": {
        "norad_id": 36278,
        "name": "FENGYUN 1C DEB",
        "group": "fengyun-1c-debris",
        "lat": -67.1637093414007,
        "lon": -75.73766434277788,
        "alt_km": 797.7273335561113,
        "timestamp": "2025-12-09T14:52:26.450244+00:00",
        "meta_object_name": "FENGYUN 1C DEB",
        "meta_object_id": "1999-025DXF",
        "meta_epoch": "2025-12-04T01:21:08.443872",
        "meta_mean_motion": 14.17353569,
        "meta_eccentricity": 0.00613363,
        "meta_inclination": 99.1236,
        "meta_ra_of_asc_node": 256.1206,
        "meta_arg_of_pericenter": 315.5831,
        "meta_mean_anomaly": 44.0433,
        "meta_ephemeris_type": 0,
        "meta_classification_type": "U",
        "meta_norad_cat_id": 36278,
        "meta_element_set_no": 999,
        "meta_rev_at_epoch": 93353,
        "meta_bstar": 0.0008477729,
        "meta_mean_motion_dot": 1.7e-05,
        "meta_mean_motion_ddot": 0,
        "tle_line1": "1 36278U 99025DXF 25338.05634773  .00001700  00000+0  84777-3 0  9990",
        "tle_line2": "2 36278  99.1236 256.1206 0061336 315.5831  44.0433 14.17353569933530"
      },
      "geometry": {
        "type": "Point",
        "coordinates": [
          -75.73766434277788,
          -67.1637093414007
        ]
      }
    },
    {
      "type": "Feature",
      "properties": {
        "norad_id": 36279,
        "name": "FENGYUN 1C DEB",
        "group": "fengyun-1c-debris",
        "lat": -15.465912681954755,
        "lon": -35.8589687181622,
        "alt_km": 839.4528522868104,
        "timestamp": "2025-12-09T14:52:26.450265+00:00",
        "meta_object_name": "FENGYUN 1C DEB",
        "meta_object_id": "1999-025DXG",
        "meta_epoch": "2025-12-08T04:59:58.612992",
        "meta_mean_motion": 14.147242,
        "meta_eccentricity": 0.00630677,
        "meta_inclination": 98.5605,
        "meta_ra_of_asc_node": 320.3989,
        "meta_arg_of_pericenter": 68.1387,
        "meta_mean_anomaly": 292.6479,
        "meta_ephemeris_type": 0,
        "meta_classification_type": "U",
        "meta_norad_cat_id": 36279,
        "meta_element_set_no": 999,
        "meta_rev_at_epoch": 88975,
        "meta_bstar": 0.00024838235,
        "meta_mean_motion_dot": 4.46e-06,
        "meta_mean_motion_ddot": 0,
        "tle_line1": "1 36279U 99025DXG 25342.20831728  .00000446  00000+0  24838-3 0  9990",
        "tle_line2": "2 36279  98.5605 320.3989 0063067  68.1387 292.6479 14.14724200889752"
      },
      "geometry": {
        "type": "Point",
        "coordinates": [
          -35.8589687181622,
          -15.465912681954755
        ]
      }
    },
    {
      "type": "Feature",
      "properties": {
        "norad_id": 36280,
        "name": "FENGYUN 1C DEB",
        "group": "fengyun-1c-debris",
        "lat": 76.25983968288739,
        "lon": -26.437443341253243,
        "alt_km": 807.3789356550114,
        "timestamp": "2025-12-09T14:52:26.450277+00:00",
        "meta_object_name": "FENGYUN 1C DEB",
        "meta_object_id": "1999-025DXH",
        "meta_epoch": "2025-12-08T20:36:31.756896",
        "meta_mean_motion": 14.09721696,
        "meta_eccentricity": 0.00633707,
        "meta_inclination": 98.7669,
        "meta_ra_of_asc_node": 11.9526,
        "meta_arg_of_pericenter": 76.4242,
        "meta_mean_anomaly": 102.7342,
        "meta_ephemeris_type": 0,
        "meta_classification_type": "U",
        "meta_norad_cat_id": 36280,
        "meta_element_set_no": 999,
        "meta_rev_at_epoch": 86299,
        "meta_bstar": 0.0014880766,
        "meta_mean_motion_dot": 2.619e-05,
        "meta_mean_motion_ddot": 0,
        "tle_line1": "1 36280U 99025DXH 25342.85870089  .00002619  00000+0  14881-2 0  9996",
        "tle_line2": "2 36280  98.7669  11.9526 0063370  76.4242 102.7342 14.09721696862992"
      },
      "geometry": {
        "type": "Point",
        "coordinates": [
          -26.437443341253243,
          76.25983968288739
        ]
      }
    },
    {
      "type": "Feature",
      "properties": {
        "norad_id": 36281,
        "name": "FENGYUN 1C DEB",
        "group": "fengyun-1c-debris",
        "lat": -37.93475248364294,
        "lon": 78.42447247587126,
        "alt_km": 1070.4060283566778,
        "timestamp": "2025-12-09T14:52:26.450288+00:00",
        "meta_object_name": "FENGYUN 1C DEB",
        "meta_object_id": "1999-025DXJ",
        "meta_epoch": "2025-12-08T00:45:39.592800",
        "meta_mean_motion": 13.60211286,
        "meta_eccentricity": 0.02894974,
        "meta_inclination": 99.2586,
        "meta_ra_of_asc_node": 264.2243,
        "meta_arg_of_pericenter": 123.04,
        "meta_mean_anomaly": 239.8907,
        "meta_ephemeris_type": 0,
        "meta_classification_type": "U",
        "meta_norad_cat_id": 36281,
        "meta_element_set_no": 999,
        "meta_rev_at_epoch": 84453,
        "meta_bstar": 0.0034342355,
        "meta_mean_motion_dot": 3.354e-05,
        "meta_mean_motion_ddot": 0,
        "tle_line1": "1 36281U 99025DXJ 25342.03170825  .00003354  00000+0  34342-2 0  9999",
        "tle_line2": "2 36281  99.2586 264.2243 0289497 123.0400 239.8907 13.60211286844535"
      },
      "geometry": {
        "type": "Point",
        "coordinates": [
          78.42447247587126,
          -37.93475248364294
        ]
      }
    },
    {
      "type": "Feature",
      "properties": {
        "norad_id": 36283,
        "name": "FENGYUN 1C DEB",
        "group": "fengyun-1c-debris",
        "lat": -25.147783635375923,
        "lon": 123.55549679117479,
        "alt_km": 594.7766048189796,
        "timestamp": "2025-12-09T14:52:26.450298+00:00",
        "meta_object_name": "FENGYUN 1C DEB",
        "meta_object_id": "1999-025DXL",
        "meta_epoch": "2025-11-28T03:35:45.168576",
        "meta_mean_motion": 15.05092252,
        "meta_eccentricity": 0.00695379,
        "meta_inclination": 99.4205,
        "meta_ra_of_asc_node": 294.0447,
        "meta_arg_of_pericenter": 95.6406,
        "meta_mean_anomaly": 265.275,
        "meta_ephemeris_type": 0,
        "meta_classification_type": "U",
        "meta_norad_cat_id": 36283,
        "meta_element_set_no": 999,
        "meta_rev_at_epoch": 66446,
        "meta_bstar": 0.0018499593,
        "meta_mean_motion_dot": 0.00027782,
        "meta_mean_motion_ddot": 0,
        "tle_line1": "1 36283U 99025DXL 25332.14982834  .00027782  00000+0  18500-2 0  9992",
        "tle_line2": "2 36283  99.4205 294.0447 0069537  95.6406 265.2750 15.05092252664467"
      },
      "geometry": {
        "type": "Point",
        "coordinates": [
          123.55549679117479,
          -25.147783635375923
        ]
      }
    },
    {
      "type": "Feature",
      "properties": {
        "norad_id": 36644,
        "name": "FENGYUN 1C DEB",
        "group": "fengyun-1c-debris",
        "lat": 50.368238265968344,
        "lon": 112.34885309108599,
        "alt_km": 1186.6454180390474,
        "timestamp": "2025-12-09T14:52:26.450308+00:00",
        "meta_object_name": "FENGYUN 1C DEB",
        "meta_object_id": "1999-025DXN",
        "meta_epoch": "2025-12-06T15:56:19.275936",
        "meta_mean_motion": 13.59167664,
        "meta_eccentricity": 0.02857814,
        "meta_inclination": 98.4234,
        "meta_ra_of_asc_node": 120.1104,
        "meta_arg_of_pericenter": 196.1478,
        "meta_mean_anomaly": 163.0413,
        "meta_ephemeris_type": 0,
        "meta_classification_type": "U",
        "meta_norad_cat_id": 36644,
        "meta_element_set_no": 999,
        "meta_rev_at_epoch": 61485,
        "meta_bstar": 0.0026178612,
        "meta_mean_motion_dot": 2.485e-05,
        "meta_mean_motion_ddot": 0,
        "tle_line1": "1 36644U 99025DXN 25340.66411199  .00002485  00000+0  26179-2 0  9994",
        "tle_line2": "2 36644  98.4234 120.1104 0285781 196.1478 163.0413 13.59167664614851"
      },
      "geometry": {
        "type": "Point",
        "coordinates": [
          112.34885309108599,
          50.368238265968344
        ]
      }
    },
    {
      "type": "Feature",
      "properties": {
        "norad_id": 36647,
        "name": "FENGYUN 1C DEB",
        "group": "fengyun-1c-debris",
        "lat": -57.00820728709658,
        "lon": -64.14698333651354,
        "alt_km": 881.1703809220953,
        "timestamp": "2025-12-09T14:52:26.450318+00:00",
        "meta_object_name": "FENGYUN 1C DEB",
        "meta_object_id": "1999-025DXR",
        "meta_epoch": "2025-12-07T04:39:02.273184",
        "meta_mean_motion": 13.88760549,
        "meta_eccentricity": 0.02389523,
        "meta_inclination": 96.1221,
        "meta_ra_of_asc_node": 123.7707,
        "meta_arg_of_pericenter": 316.1399,
        "meta_mean_anomaly": 42.1009,
        "meta_ephemeris_type": 0,
        "meta_classification_type": "U",
        "meta_norad_cat_id": 36647,
        "meta_element_set_no": 999,
        "meta_rev_at_epoch": 30335,
        "meta_bstar": 0.0036282944,
        "meta_mean_motion_dot": 5.477e-05,
        "meta_mean_motion_ddot": 0,
        "tle_line1": "1 36647U 99025DXR 25341.19377631  .00005477  00000+0  36283-2 0  9999",
        "tle_line2": "2 36647  96.1221 123.7707 0238952 316.1399  42.1009 13.88760549303358"
      },
      "geometry": {
        "type": "Point",
        "coordinates": [
          -64.14698333651354,
          -57.00820728709658
        ]
      }
    }
  ]
}